OBJECT_NAME,OBJECT_ID,EPOCH,MEAN_MOTION,ECCENTRICITY,INCLINATION,RA_OF_ASC_NODE,ARG_OF_PERICENTER,MEAN_ANOMALY,EPHEMERIS_TYPE,CLASSIFICATION_TYPE,NORAD_CAT_ID,ELEMENT_SET_NO,REV_AT_EPOCH,BSTAR,MEAN_MOTION_DOT,MEAN_MOTION_DDOT
SAR-LUPE 2,2007-030A,2026-06-05T03:19:43.678272,15.48340724,.00086918,98.1029,259.0981,158.0800,202.0821,0,U,31797,999,5507,.23616123E-4,.1139E-4,0
SAPPHIRE,2013-009C,2026-06-05T05:46:27.544512,14.35237136,.00100138,98.4258,335.9804,286.3361,73.6723,0,U,39088,999,69486,.51789157E-4,.105E-5,0
PRAETORIAN SDA_602,2025-203A,2026-06-05T00:37:46.568352,13.84341910,.00051939,81.3040,22.0348,219.9628,140.1147,0,U,65565,999,3701,.46033028E-4,.63E-6,0
PRAETORIAN SDA_603,2025-203B,2026-06-04T16:30:07.159968,13.83904801,.0008748,81.3042,22.2566,223.7267,136.3198,0,U,65566,999,3697,.18211E-3,.214E-5,0
PRAETORIAN SDA_604,2025-203C,2026-06-05T01:28:14.016576,13.83046294,.0004727,81.3062,22.3039,228.0714,132.0040,0,U,65567,999,3700,.10256173E-3,.124E-5,0
PRAETORIAN SDA_605,2025-203D,2026-06-05T00:43:11.252640,13.83433404,.00074865,81.3026,22.0076,218.1203,141.9424,0,U,65568,999,3701,.71122487E-4,.9E-6,0
PRAETORIAN SDA_606,2025-203E,2026-06-05T02:01:51.853152,13.83406387,.00051372,81.3062,22.1736,216.2026,143.8784,0,U,65569,999,3701,.7447399E-4,.94E-6,0
PRAETORIAN SDA_607,2025-203F,2026-06-05T00:40:23.019744,13.84283515,.00080377,81.3050,21.9078,223.2323,136.8203,0,U,65570,999,3702,.17981144E-3,.213E-5,0
PRAETORIAN SDA_608,2025-203G,2026-06-05T01:46:02.779392,13.83815828,.00052302,81.3015,22.0227,226.9462,133.1257,0,U,65571,999,3701,.74378654E-4,.94E-6,0
PRAETORIAN SDA_609,2025-203H,2026-06-05T01:58:35.458176,13.84284095,.00062835,81.3060,22.0003,218.2973,141.7738,0,U,65572,999,3702,.17413301E-3,.206E-5,0
PRAETORIAN SDA_610,2025-203J,2026-06-04T23:33:13.258944,13.83851059,.00058968,81.3016,22.0666,224.3360,135.7325,0,U,65573,999,3700,.46428435E-4,.63E-6,0
PRAETORIAN SDA_611,2025-203K,2026-06-04T23:27:27.276192,13.83308254,.00048201,81.3014,22.2262,232.7002,127.3715,0,U,65574,999,3699,.11883006E-3,.142E-5,0
PRAETORIAN SDA_612,2025-203L,2026-06-04T23:34:26.148576,13.85037462,.00085805,81.3036,21.8378,221.8746,138.1756,0,U,65575,999,3702,.16031856E-3,.193E-5,0
PRAETORIAN SDA_613,2025-203M,2026-06-04T23:30:15.399360,13.82764209,.00049882,81.3009,22.2116,219.4797,140.5996,0,U,65576,999,3699,.48901797E-4,.65E-6,0
PRAETORIAN SDA_614,2025-203N,2026-06-05T00:59:35.403072,13.84777672,.00064366,81.3023,21.8579,218.9725,141.0969,0,U,65577,999,3703,.77301385E-4,.99E-6,0
PRAETORIAN SDA_615,2025-203P,2026-06-05T02:06:03.469824,13.84435426,.0008312,81.3034,21.7713,220.5394,139.5145,0,U,65578,999,3703,.18610707E-3,.22E-5,0
PRAETORIAN SDA_616,2025-203Q,2026-06-04T23:25:47.761536,13.83266678,.00048131,81.3071,22.3637,229.0791,130.9949,0,U,65579,999,3699,.19686806E-3,.228E-5,0
PRAETORIAN SDA_617,2025-203R,2026-06-05T01:39:34.670592,13.83149903,.00066858,81.3045,22.1105,219.2760,140.7911,0,U,65580,999,3701,.81904827E-4,.101E-5,0
PRAETORIAN SDA_618,2025-203S,2026-06-04T23:36:02.973600,13.84668456,.00090153,81.3028,21.8024,223.4858,136.5589,0,U,65581,999,3702,.14923229E-3,.18E-5,0
PRAETORIAN SDA_619,2025-203T,2026-06-05T02:00:55.440864,13.83868773,.00076958,81.3048,21.9863,220.9226,139.1353,0,U,65582,999,3765,-.12513694E-1,-.13833E-3,0
PRAETORIAN SDA_620,2025-203U,2026-06-05T00:54:47.015424,13.83617346,.00072277,81.3044,22.0493,213.6855,146.3843,0,U,65583,999,3701,.16277898E-3,.191E-5,0
PRAETORIAN SDA_621,2025-203V,2026-06-05T02:03:28.215936,13.83800262,.00067578,81.3029,21.9266,213.0874,146.9860,0,U,65584,999,3702,.78772926E-4,.99E-6,0
PRAETORIAN SDA_601,2025-203W,2026-06-04T23:29:02.327424,13.83166476,.00047418,81.3043,22.3090,233.2105,126.8617,0,U,65585,999,3699,-.22349581E-4,-.13E-6,0
